id,name,city,state,lat,lng
7398,High Country Alpacas LLC,Hesperus,CO,37.17279052734375,-108.0923080444336
8366,Tiskilwa Farms Alpacas,Tiskilwa,IL,41.30712890625,-89.62848663330078
10750,Margery-Ray Alpacas,Concord Township,OH,41.66046905517578,-81.19970703125
20438,North Country Alpacas,Le Sueur,MN,44.45322036743164,-93.87222290039062
7066,Awesome Acres 'Pacas & Pyrs,Oklahoma City,OK,35.35036087036133,-97.3001708984375
6912,Windy Farm Alpacas,Chesterfield,NJ,40.10221862792969,-74.65876770019531
6824,Rosehaven Alpacas Inc,Callicoon,NY,41.77214813232422,-74.98181915283203
7043,Broad Creek Alpacas,Greenville,VA,38.01567077636719,-79.10221099853516
8100,RanchoNC Alpacas and Art Studio,Valley Springs,CA,38.154911041259766,-120.8939208984375
20681,Soft Hearts Alpaca Farm,Sunbury,OH,40.287109375,-82.78752899169922
6651,Tejas Alpacas,Plantersville,TX,30.27389907836914,-95.84503936767578
6925,Timberland Alpacas,Forest Grove,OR,45.61429977416992,-123.20929718017578
7872,Little Creek Alpacas,Havelock,NC,34.929710388183594,-76.71790313720703
8560,Chelsea Farms,Renton,WA,47.42652893066406,-122.06382751464844
10978,Far View Ranch Alpacas,Elgin,AZ,31.681840896606445,-110.57189178466797
20620,Marquita Ranch Alpacas,Montrose,CO,38.38591003417969,-107.82968139648438
7804,"Shepherd's Creek Alpacas, LLC",Trumansburg,NY,42.516571044921875,-76.7215805053711
21187,Alpacas of Oregon,Sherwood,OR,45.3643684387207,-122.90692901611328
7390,Glengary Farm Alpacas,Jacksonville,NC,34.78886032104492,-77.42790222167969
6856,Tartan Acres LLC,Homer,NY,42.674591064453125,-76.22888946533203
6302,Wings and A Prayer Alpacas,Amity,OR,45.13172149658203,-123.21173858642578
8046,Lighthouse Alpaca Ranch @ Frye Cove,Olympia,WA,47.11574172973633,-122.9810791015625
7418,Kissing Cousins Alpaca Farm,Chehalis,WA,46.61771011352539,-123.0550765991211
7795,La Finca Alpacas,Yacolt,WA,45.877601623535156,-122.4760513305664
6907,Derwydd Alpacas,Esparto,CA,38.68016052246094,-122.05650329589844
6169,Tierra Prometida Alpacas,Fischer,TX,29.93061065673828,-98.17510986328125
7724,Dorans Suri Alpaca,Westerville,OH,40.1232795715332,-82.79096984863281
6524,Alpacas of NH @ Sleeping Monk Farm,New Ipswich,NH,42.78221893310547,-71.91120147705078
7340,Majestic Meadows Alpacas & Boutique,Medina,OH,41.16278839111328,-81.89176177978516
6976,Alpacas of El Dorado,Somerset,CA,38.62160110473633,-120.61251068115234
6396,"ALPACAS of Tualatin Valley, LLC",Beaverton,OR,45.469261169433594,-122.91155242919922
6160,Stargazer Ranch,Loveland,CO,40.36874008178711,-105.02185821533203
6975,Poplar Hill Alpacas & Studio,Blacksburg,VA,37.288150787353516,-80.37210083007812
7166,Hickory Bluff Farms,Mount Juliet,TN,36.233760833740234,-86.44296264648438
6423,"Big Hat Ranch, LLC",Mc Coy,CO,39.921058654785156,-106.74712371826172
8174,Whispering Meadows Alpaca Breeders,Mount Airy,MD,39.471439361572266,-77.17945861816406
8566,Shalimar Alpacas,Warwick,NY,41.30226135253906,-74.32621002197266
7354,Mary's Alpaca,The Plains,VA,38.82598114013672,-77.83712768554688
6468,Orchard Hill Alpacas,Elkins,WV,38.904781341552734,-79.84691619873047
8318,Token Creek Alpacas LLC,Evansville,WI,42.76070022583008,-89.18550872802734
7181,Alpacas at Windy Hill,Somis,CA,34.3109494246561,-118.9786548614502
6434,Long Hollow Suri Alpacas,Gallatin,TN,36.44873809814453,-86.45462799072266
8075,Island Overlook Farms,Lebanon,TN,36.31697082519531,-86.08966827392578
7572,Alpacas By The Sea,Montara,CA,37.540771484375,-122.5066909790039
7042,West Penn Alpacas,Claysville,PA,40.07286834716797,-80.40032196044922
6247,Cinco C's Alpacas,Port Allegany,PA,41.796321868896484,-78.20124053955078
8484,Granite Bay Alpacas,Granite Bay,CA,38.74378967285156,-121.18705749511719
6594,Skyline Alpacas,Portland,OR,45.557491302490234,-122.79257202148438
7562,KJ Alpacas,Red Deer County,AB,52.06543747768086,-113.71847519869334
6933,Arapaho Rose Alpacas,Redding,CA,40.59864044189453,-122.29869079589844
7840,NorthCoast Alpacas,Grafton,OH,41.25825881958008,-82.02232360839844
6950,Pines Edge Suri Alpaca,Elbert,CO,39.02056121826172,-104.60198211669922
6350,Amber Autumn Alpacas,Culver,OR,44.461299896240234,-121.24983215332031
7823,Kalmar Kolors Alpacas,Morrison,IL,41.860660552978516,-90.08267974853516
6388,Alpenglow Alpacas,Westcliffe,CO,38.03643035888672,-105.49939727783203
7189,Rocking L Alpacas,Victor,MT,46.3767204284668,-114.19490051269531
21268,Fleecy Dale Alpacas,Pennington,NJ,40.35988998413086,-74.82923126220703
7261,Sundancer Alpacas L.L.C.,Los Lunas,NM,34.80414962768555,-106.74777221679688
7194,Zodiac Ranch,Milford,MI,42.58177185058594,-83.56385803222656
8070,Painted Spring Farm Alpacas,Spring Grove,PA,39.911399841308594,-76.89143371582031
7269,"Cas-Cad-Nac Farm, LLC",Perkinsville,VT,43.41791915893555,-72.4477767944336
6956,Heather's Acre Alpaca Farm,Jackson Center,PA,41.29729080200195,-80.155517578125
7183,T 'n' C Farms ,Outlook,SK,53.518040430271256,-109.7529453125
6982,Nyala Farm Alpacas,Vestal,NY,42.045928955078125,-76.09327697753906
7011,Finger Lakes Alpacas LLC,Medina,OH,41.0986213684082,-81.98206329345703
7750,Crescent Moon Ranch,Terrebonne,OR,44.34463882446289,-121.17878723144531
7012,Zuni Tree & Alpaca Farm,Zuni,VA,36.87746047973633,-76.81159210205078
16086,Paragon Alpacas,Dickerson,MD,39.26564025878906,-77.34912872314453
7260,The Alpacas of Phantasy Pharm,Burbank,OH,40.94435119628906,-81.95793914794922
7664,Hummers Homestead Alpacas,McDade,TX,30.30154037475586,-97.19721984863281
19424,Tiger Lily Ranch,Pilot Butte,SK,50.444772028717466,-104.35380147677658
7939,Quidish Fields Alpacas,Clovis,CA,36.85224914550781,-119.55721282958984
6459,Xanadu Farm Alpacas,Frederick,CO,40.111148834228516,-105.02710723876953
7516,October Skies Alpacas LLC,Burbank,OH,40.94435119628906,-81.95793914794922
6240,Chagrin Valley Alpacas,Novelty,OH,41.462890625,-81.30867004394531
7934,Emelise Alpacas,Hampton,NJ,40.71638870239258,-74.9451675415039
7405,Colonial Alpacas,Williamstown,MA,42.69203186035156,-73.18183898925781
7376,Sunnyhill Alpacas,Leduc County,AB,53.29785054807022,-113.19639071541482
6146,Bluebird Hills Farm,Springfield,OH,39.97731018066406,-83.78389739990234
6757,Grand A Alpacas,Jasper,MN,43.85231018066406,-96.40447235107422
6254,Stachowski Alpacas LLC,Mantua,OH,41.34220886230469,-81.2220230102539
6660,Seven Hills Alpacas,Alexis,IL,41.101741790771484,-90.58882141113281
8113,LondonDairy Alpacas,Two Rivers,WI,44.180519104003906,-87.59986114501953
6414,Alpacas from MaRS,Snohomish,WA,47.99148941040039,-122.02184295654297
7914,Hemlock Hills Alpaca Farm,Livonia,NY,42.81378936767578,-77.5999984741211
6272,Coffee Pot Farm,Sherrodsville,OH,40.51874923706055,-81.21473693847656
6683,Aussie Acres Alpacas Inc,Loveland,CO,40.412811279296875,-105.00708770751953
7931,Alpacas of Wintercreek,Auburn,WA,47.261138916015625,-122.18528747558594
8181,Celebrity Sales,Philomath,OR,44.53049850463867,-123.37484741210938
8455,"Forest Glen Alpacas, LLC",Titusville,PA,41.30391274630197,-79.35708618164062
7334,Wilkins Livestock,Geneva,NE,40.52973937988281,-97.61390686035156
8140,Kraussdale Alpacas,East Greenville,PA,40.429969787597656,-75.48724365234375
6285,Wild Hair Alpacas LLC,Colorado Springs,CO,39.075260162353516,-104.7174301147461
7657,LaZyB Acres Alpacas,Bennett,CO,39.62186050415039,-104.43193817138672
7382,Eastland Alpacas,Mount Joy,PA,40.149349212646484,-76.51164245605469
6635,Open Gates Alpacas,Broadalbin,NY,43.129119873046875,-74.13542938232422
7644,Kendall Creek Farms Alpacas,Bradford,PA,41.93272018432617,-78.58116912841797
7843,Sugartown Farms,Ellicottville,NY,42.27095031738281,-78.66146087646484
7446,Loney's Alpaca Junction,Lake City,MI,44.38161849975586,-85.07563781738281
7380,Six Paca Farm,Bozrah,CT,41.55577087402344,-72.16532897949219
7104,"Flying Dutchman Alpacas, LLC",Bend,OR,44.175479888916016,-121.32396697998047
6144,"Heritage Farm Alpacas & Events, LLC",Flora,IN,40.53403091430664,-86.3564682006836
6621,Heritage Alpacas,Gaston,OR,45.41080856323242,-123.10098266601562
6141,Fair Winds Alpacas,Auburn,CA,38.9463005065918,-121.15142059326172
6727,Joyful Journey Alpacas LLC,Hayward,WI,46.07221984863281,-91.28904724121094
6462,Morgan's Fortunato Farm,Waverly,WV,39.269859313964844,-81.3047103881836
6810,Anvil Alpacas,Belleville,KS,39.81975173950195,-97.62602233886719
8028,Rodgers' Reserve Alpaca Farm,Greenwich,OH,40.93130111694336,-82.48313903808594
8398,Alpaca Bella Suri Farm,Morrow,OH,39.35100173950195,-84.15706634521484
7001,Rancho Alamogordo Alpacas,Elizabeth,CO,39.40467834472656,-104.6478271484375
7347,Salt River Alpacas,Paris,MO,39.52415084838867,-91.99198913574219
8224,Limestone Creek Alpacas,Cazenovia,NY,42.942928314208984,-75.90733337402344
6525,Stagecoach Trails Alpacas LLC,Middletown,NY,41.51654815673828,-74.36399841308594
7074,Morning SKY Farm,Clarks Mills,PA,41.41732232053998,-80.18896818161011
6830,Wildwood Alpacas,Woodford,VA,38.15385055541992,-77.3901596069336
6503,North River Alpacas,Norwalk,IA,41.4570198059082,-93.60357666015625
7296,Island Alpaca Co of Martha's Vineyard,Vineyard Haven,MA,41.42377853393555,-70.6102523803711
7758,Sandollar Farms Alpacas & Pyrs,Kennewick,WA,46.189491271972656,-119.11699676513672
6769,Que Sera Alpacas,Santa Fe,NM,35.51197814941406,-105.9073486328125
7029,Carolina Pride Alpacas LLC,Maple Hill,NC,34.728851318359375,-77.62564086914062
7092,Alpacas All Around,Eagle Creek,OR,45.35197830200195,-122.33920288085938
6161,Clayfarm Alpacas,Seymour,IN,39.01557159423828,-85.81649780273438
7177,Black Hills Alpacas,Lacey,WA,47.04936981201172,-122.74256896972656
6722,Never Ending Alpaca Farm,Portville,NY,42.056461334228516,-78.33450317382812
19620,Mill Creek Alpacas,Chester,IL,37.89841842651367,-89.69631958007812
7473,"Heartland ""Criations"" Alpacas LLC",Rio,IL,41.08607864379883,-90.34294891357422
8048,Alpacas of Montana Inc,Bozeman,MT,45.62390899658203,-111.1041030883789
6250,Alpacas of Somerset Farm,Somerset,CA,38.55757141113281,-120.81246185302734
6246,R&R Suris,Montague,MI,43.45742414572825,-86.31604290008545
20618,Double 8 Alpaca and Llama Ranch,Hillsboro,VA,39.24745178222656,-77.72612762451172
7479,K-Ran Alpacas,Afton,NY,42.2718505859375,-75.54647064208984
7067,Lasso The Moon Alpacas,Blairsville,GA,34.858158111572266,-83.90538787841797
7888,Quarry Critters Alpaca Ranch ,Littlestown,PA,39.77183151245117,-77.07554626464844
6837,Irish Meadows Alpaca Farm,La Motte,IA,42.23735809326172,-90.61871337890625
20860,Long Acres Alpaca Farm,Mercersburg,PA,39.78887939453125,-77.9364013671875
6564,Lippencott Alpacas LLC,Waynesburg,PA,39.94868087768555,-80.11573028564453
7566,Aspen Alpaca Company,Sandpoint,ID,48.37163162231445,-116.46211242675781
7880,Annie's Alpaca Ranch,Longmont,CO,40.131568908691406,-104.98957061767578
21885,Autumn Sun Alpacas at Autumn Sun Acres,Calhan,CO,38.97690963745117,-104.4232177734375
6166,"Greenbriar Farm Alpacas — MAM Consulting Associates, Inc.",Waukesha,WI,42.96110916137695,-88.22305297851562
6663,Rainbow Mountain Alpacas,Punxsutawney,PA,40.9953498840332,-79.1176528930664
6934,Spinning Wheel Ranch,Bogata,TX,33.464420318603516,-95.21333312988281
6205,Waypoint Farm,Wenatchee,WA,47.483558654785156,-120.38934326171875
6665,Eagle Bend Alpacas,Burlington,KY,38.978240966796875,-84.7512435913086
6930,Alpacas of Indian Point Hills,Petersburg,IL,40.00812911987305,-89.7513198852539
6412,The Wood Farm,Franklin,PA,41.45846939086914,-79.91903686523438
9280,Pet2Tingo ,Oregon City,OR,45.331539154052734,-122.55486297607422
7489,Arriba Linea Alpacas,Lindsay,ON,44.3864548872134,-78.71928684616091
7977,Salt Creek Alpacas,Farmer City,IL,40.33195877075195,-88.6314697265625
21502,Renaissance Ridge Alpacas ,Mount Aukum,CA,38.55559158325195,-120.72633361816406
10958,Alpacas in the Glen,Smithville Flats,NY,42.44118118286133,-75.87811279296875
6207,Alpacas at Willowbrook Farm,Louisburg,KS,38.68600845336914,-94.74098205566406
6799,Misty Acres Alpaca Farm,Sidney,ME,44.44221878051758,-69.70160675048828
7510,Heaven's Hill Alpaca,Washington,PA,40.208229064941406,-80.18112182617188
7346,Victoria Lane Alpacas,New Waterford,OH,40.871089935302734,-80.58634948730469
6614,Circus City Alpacas LLC,Peru,IN,40.7929801940918,-86.12371826171875
7513,Crystal Lake Alpaca Farm,Frankfort,MI,44.618309020996094,-86.14151000976562
8415,Elf Paca Meadows,West Newfield,ME,43.640830993652344,-70.94426727294922
16504,3D's Alpacas,Olympia,WA,47.09938049316406,-122.8058090209961
7679,Paca Paradise Ranch,Hillsboro,OR,45.435089111328125,-122.94435119628906
7193,Happy Tails Alpaca Farm,Xenia,OH,39.64094161987305,-84.01004028320312
6828,"Rancho Inca Alpacas, LLC",Navasota,TX,30.281940460205078,-95.96318054199219
8238,Alpaca Road LLC,Denton,MD,38.89400100708008,-75.80487823486328
7155,Autumn Mist Alpaca Farm & Fiber Mill LLC,Prattsburgh,NY,42.558799743652344,-77.19254302978516
8871,Infinity Alpaca Ranch,Olympia,WA,46.96929168701172,-122.76419830322266
8003,Enduring Gift Alpacas,Mc Coy,CO,39.921058654785156,-106.74712371826172
7167,Blendon Pines Alpaca Ranch,Hudsonville,MI,42.89249038696289,-85.94554901123047
7191,coventry falls alpacas,Irasburg,VT,44.785858154296875,-72.30554962158203
6579,Alpacas @ Triple Tree,Sheldon,IA,43.1863961631185,-95.9236159324646
7135,Golden Spirit Alpaca Ranch,Odessa,FL,28.13602066040039,-82.6080093383789
8183,Frosty Ridge Alpacas,Duluth,MN,46.8077507019043,-92.31825256347656
21843,Claddagh Farm LLC,La Fayette,NY,42.85306930541992,-76.04743194580078
7813,Fun In The Country Alpacas,Columbiaville,MI,43.161041259765625,-83.45989990234375
6842,CCAP Alpacas,Westlake,OH,41.44628143310547,-81.96631622314453
6766,Northern Solstice Alpaca Farm,Unity,ME,44.59077835083008,-69.29589080810547
6752,C&M Acres Fiber Mill and Alpacas,Maxwell,IA,41.86589813232422,-93.38211822509766
6694,Gentle Breeze Alpacas,Burlington Flats,NY,42.775569915771484,-75.20509338378906
7052,Suri Downs Farm,Maidens,VA,37.714088439941406,-77.83869171142578
6356,KB Alpacas,Wilmington,OH,39.522090911865234,-83.8988037109375
8589,Asgard Acres Alpaca Farm LLC,Renfrew,PA,40.81148147583008,-80.00382232666016
6686,Desert Mirage Alpaca Ranch LLC,Wittmann,AZ,33.72684097290039,-112.4711685180664
21378,Hill Crest Alpacas,North Dartmouth,MA,41.67898941040039,-71.00102996826172
7972,Clearview Alpaca Farm,Saint Stephens Church,VA,37.863073158999235,-77.01087379455566
7820,Alpacas of Marin/SoCalSuri Alpacas,Nicasio,CA,38.08879450268688,-122.75534439086914
7842,Harley Hill Farm LLC,Quakertown,PA,40.489990234375,-75.35759735107422
6908,Alpacas at Marquam Hill Ranch LLC,Molalla,OR,45.0908203125,-122.67266082763672
7698,Peeka Ranch,Burton,TX,30.069229125976562,-96.57273864746094
7427,Triple Diamonds Alpaca Ranch,Howell,MI,42.51156997680664,-83.88497161865234
6204,Alpacas of Moose Creek Ranch,Bucyrus,KS,38.69929885864258,-94.72335052490234
7110,ROCKSTAR Alpacas,Royal Oaks,CA,36.864768981933594,-121.685546875
7636,Walnut Hill Farm,Metamora,MI,42.91128158569336,-83.3612289428711
19573,Apulanda Alpacas,OWATONNA,MN,44.14231872558594,-93.2166519165039
6954,Suri Alpacas of Shiloh Farm,Shermans Dale,PA,40.311248779296875,-77.15644073486328
7599,Sabamba Alpaca Ranch,De Pere,WI,44.38174057006836,-88.14579010009766
6182,Our Little World Alpacas LLC,Grafton,OH,41.23965072631836,-81.98326110839844
6798,Foster's Trail & Alpaca Farm,Cleveland,TN,35.226070404052734,-84.82073211669922
7219,"Alpaca Country Estates, LLC",Terrebonne,OR,44.356201171875,-121.20246124267578
6584,Starry Night Alpacas LLC,Lewisberry,PA,40.146060943603516,-76.89807891845703
20242,Linda's Alpacas,Grafton,OH,41.25825881958008,-82.02232360839844
6433,Spring Grove Alpaca Ranch,Quarryville,PA,39.87416076660156,-76.15354919433594
6821,Blue Ridge Alpaca Ranch LLC,Coon Valley,WI,43.811370849609375,-91.03166961669922
6281,Macedo's Mini Acre,Turlock,CA,37.449798583984375,-120.83072662353516
7018,Querencia,Medford,OR,42.27228927612305,-122.85816192626953
7252,Clear Mountain Alpacas LLC,Somers,CT,41.94866943359375,-72.48967742919922
9464,"Stoneberg Alpacas, LLC",Hillsboro,OR,45.44873809814453,-122.97384643554688
6978,Legendary Alpacas of Texas,Maypearl,TX,32.287010192871094,-97.0562515258789
8302,Hollywick Farms LLC,Sandia Park,NM,35.18865966796875,-106.30925750732422
8055,Full Tilt Alpacas,Wellington,OH,41.16836166381836,-82.08647918701172
7103,B I Bar Ranch,Colorado Springs,CO,39.112701416015625,-104.66327667236328
7171,Wellspring Acres Alpaca Farm ,Sarcoxie,MO,37.079280853271484,-94.1042709350586
11114,Swallow Hill Farm ,Hillsborough,NJ,40.48855972290039,-74.75579071044922
6805,Over Home Alpacas,Bethel,PA,40.47523880004883,-76.24101257324219
6906,Amazing Grace Alpaca Farm,Fremont,WI,44.196678161621094,-88.93035888671875
7231,Alpacas of the Heartland LLC,Fort Calhoun,NE,41.48154067993164,-96.07853698730469
6277,Outstanding Dreams Farm,Preston,MD,38.798580169677734,-75.85709381103516
6677,DJ's Classic Alpacas,Keller,TX,32.91033172607422,-97.2011489868164
8430,Alive N' Fuzzy Alpaca Farm,Bowling Green,KY,36.92953109741211,-86.53341674804688
7049,The Alpacas of Spring Acres,Zanesville,OH,40.043190002441406,-81.9298324584961
8317,Cardinal Creek Farm LLC,Edmond,OK,35.6669807434082,-97.65621185302734
6172,Flatland Ranch,Rose Hill,KS,37.51485061645508,-97.15293884277344
20010,"Snowy Range Alpacas, LLC",Greenacres,WA,47.605079650878906,-117.11579895019531
7632,Pura Vida Alpacas LLC,Eugene,OR,43.98023986816406,-123.03466796875
6528,Houchin Family Alpacas,Heyworth,IL,40.34199142456055,-88.94422912597656
6321,Good Time Ridge Farm,Augusta,WV,39.288429260253906,-78.55323791503906
7020,Green Slopes Alpacas,Canal Fulton,OH,40.867759704589844,-81.59175109863281
6639,"Twilight Alpacas, LLC",Spencer,NY,42.25096893310547,-76.50704193115234
8215,Windy Meadows Farm,Juneau,WI,43.357059478759766,-88.66034698486328
6785,Menagerie Hill Ranch,Vacaville,CA,38.45122146606445,-122.0000991821289
6545,"Pleasant Prairie Suri Alpacas, Fashions and Farm",Otis Orchards,WA,47.69430160522461,-117.12787628173828
6962,Northern Prairie Alpacas LLC,Sullivan,MO,38.27973175048828,-91.2979507446289
11595,Ku'u Home Ranch,Hawi,HI,20.235450744628906,-155.83047485351562
7956,Alpaca Evolution,Milton Keynes,Buckinghamshire,51.98499033784977,-0.8795224640616572
6463,Zena Suri Alpacas,Jay,OK,36.51131820678711,-94.84485626220703
7475,Log Cabin Alpacas,Harpursville,NY,42.170860290527344,-75.67456817626953
7351,Kandy Coated Alpacas LLC,Jacksonville,NC,34.83116912841797,-77.53064727783203
7686,Mountain Sky Ranch LLC,Berthoud,CO,40.27473068237305,-105.21983337402344
6363,"RayNay Alpaca Farm, LLC",Ruffin,NC,36.36220169067383,-79.5045166015625
7554,Heart & Soul Alpacas,Whitehall,MT,45.69987106323242,-112.2107162475586
21116,Red Hill Llamas & Alpacas,Ratliff City,OK,34.415191650390625,-97.50865173339844
6593,Two Crows Farm,Murphy,NC,35.183738708496094,-84.03500366210938
7364,Whistling Pines Ranch,Clayton,WI,45.27442932128906,-92.06227111816406
6483,Red Granite Ranch Ltd,Livermore,CO,40.93767166137695,-105.2839126586914
6726,"Sugar Hollow Farm Alpacas, LLC",Waynesboro,PA,39.78575563730952,-77.52987194061278
7707,Dancing Elk Alpacas,Pray,MT,45.33924102783203,-110.72834014892578
7105,Sweet Blossom Alpacas,Millen,GA,32.83250045776367,-81.89988708496094
21912,Vintage Alpacas,Brooklyn Heights,OH,41.41545104980469,-81.6792984008789
6680,Lodi Alpacas at Whistling Valley Farm,Lodi,WI,43.3408203125,-89.55683135986328
19849,Aquarius Alpacas,Greeley,CO,40.37287139892578,-104.7596435546875
6991,Chimera Ranch ,Bennett,CO,39.67543029785156,-104.4384765625
14221,Alpenwood Alpacas,Rockford,MN,45.06412041796832,-93.71229028701782
6516,Round Hill Alpacas,Coventry,CT,41.78810119628906,-72.32968139648438
7184,Sawdust Alpacas LLC,Fallon,NV,39.4268913269043,-118.85073852539062
8051,That'll Do Farm,Grafton,OH,41.237510681152344,-81.99545288085938
10702,"Paradise Alpacas dba Pacavil, LLC",Paradise,UT,41.57622146606445,-111.80963897705078
8416,Carrageen Suri Alpacas,Gray,ME,43.7872952175268,-70.14016014337538
7834,Violet Hill Farm,Lexington,KY,38.05754852294922,-84.31983947753906
6945,Two Hearts Alpaca Ranch,La Vernia,TX,29.385229110717773,-98.06729125976562
7301,Morning Beckons Farm LLC,Thompson,CT,42.00294876098633,-71.8188705444336
13909,Sky Ridge Alpacas,Terrebonne,OR,44.35419845581055,-121.16609954833984
8770,"Bedford's Lincoln Pike Alpaca Farm, LLC",Bedford,PA,40.00849151611328,-78.46556854248047
8894,Uinta Alpacas,Willard,UT,41.41720962524414,-112.04065704345703
6646,Sugarland Alpacas,Durango,IA,42.54719924926758,-90.8487777709961
8713,Red Gate Alpaca Farm,Dundas,MN,44.41231918334961,-93.22113037109375
8141,ThunderHead Alpacas,Wellington,CO,40.83427810668945,-105.0335693359375
6988,OnAgain OffAgain Farm LLC,Spartanburg,SC,34.9665412902832,-81.85955810546875
6720,Hasselbring's Harmony Ranch,Concordia,MO,39.024681091308594,-93.63807678222656
6822,"Ridge Valley Alpacas, LLC",Fairfield,VA,37.906429290771484,-79.29566955566406
7176,Manna Meadows Alpacas,Bonner Springs,KS,39.07276153564453,-94.97028350830078
6942,Luna Wood Alpacas,Kirksey,KY,36.706960859268776,-88.45913898944855
9564,Finesse Alpaga Ranch,Mansonville,QC,45.015408171582614,-72.41297006607056
6359,Cabin View Alpacas,Trumansburg,NY,42.57386016845703,-76.6644515991211
8206,Cedar Creek Alpacas,Cook,WA,45.74776077270508,-121.65103149414062
7604,Nittany Valley Alpacas,Cranberry Twp,PA,40.728721618652344,-80.12545776367188
6966,Alpacas of Sanssouci,Indian Hills,CO,39.60424011344349,-105.27075958251953
9602,Colusa Riverside Alpacas,Lincoln,CA,38.951698303222656,-121.2360610961914
21227,Crazy Moon Farm,Blairstown,NJ,40.953590393066406,-74.93025970458984
7531,Blazing Star Ranch,Elizabeth,CO,39.41468811035156,-104.6173095703125
6753,Aubrey Oaks Alpacas,Gainesville,TX,33.61465072631836,-97.00853729248047
7789,Horsefeather Ranch,Arroyo Grande,CA,35.157108306884766,-120.56468200683594
8071,Good Karma Ranch,Iron Station,NC,35.44575881958008,-81.10124206542969
16163,Owl Ridge Alpacas,Interlaken,NY,42.64401212774551,-76.73689270019531
7500,Buckeye Grove Alpacas,East Sparta,OH,40.68191909790039,-81.39054870605469
7006,Shillcox Shamrock Lines Alpaca Farms LLC ,De Pere,WI,44.37181091308594,-87.97747802734375
6607,Shambalah Alpaca Ranch,Franktown,CO,39.404048919677734,-104.75466918945312
18603,Bookcliff Alpacas,Buffalo,WY,44.292388916015625,-106.69806671142578
8057,"Applewood Lane Alpacas, Inc",Wittenberg,WI,44.8161506652832,-89.16502380371094
6445,Grey Meadows Alpaca Farm,Solomon,KS,38.858341217041016,-97.35395812988281
6935,Happy Hounds Alpaca Ranch,Sisters,OR,44.316001892089844,-121.45317840576172
6397,Little Creek Farm/Snowmass Alpacas,North Salem,NY,41.35186004638672,-73.594482421875
10616,Alpacas of Melodye Farm,Thackerville,OK,33.782039642333984,-97.13385772705078
8121,"Oakhill Alpacas, LLC",Mays Landing,NJ,39.525299072265625,-74.80579376220703
10947,Lake Alice Alpacas,Waterport,NY,43.31087875366211,-78.2833480834961
6153,Spottedcircus Alpacas,Freedom,IN,39.239219665527344,-86.91020202636719
6368,Paca Park Place,Grant Park,IL,41.274688720703125,-87.54900360107422
7950,Tuckahoe Treasures Alpaca Farm,Denton,MD,38.85540008544922,-75.91134643554688
7169,Rogue Suri Alpacas,Medford,OR,42.384639739990234,-122.80577087402344
6200,Cleo's Alpacas LLC,Mooresville,NC,35.64883041381836,-80.83876037597656
6958,Clover Bottom Alpaca Ranch,Washington,MO,38.50559997558594,-91.1196517944336
6883,Hickory Meadow Alpaca Farm LLC,Coolville,OH,39.23122024536133,-81.7724380493164
16527,LinChris Alpaca Farm,Columbus,IN,39.12091827392578,-85.90352630615234
6598,Nodrog Farms,Barrington,NH,43.20854949951172,-71.0093002319336
8214,Andean Dawn Alpacas,Princeton,MA,42.432708740234375,-71.91728210449219
7309,Awesome Alpacas Farm!,Monroe,NC,35.09477996826172,-80.54530334472656
6704,"Big Timber Alpacas, LLC",Sherwood,OR,45.307071685791016,-122.86174774169922
7851,Double G Alpacas,Sierra Vista,AZ,31.477460861206055,-110.1600570678711
7365,Central Hill Alpacas,Windsor,VA,36.90467071533203,-76.72577667236328
16678,Stoney Meadows Alpacas,Holley,NY,43.16400909423828,-78.07817077636719
8948,Rockin' R Alpaca Ranch,Conifer,CO,39.4923210144043,-105.33518981933594
6416,Pulse Ranches Texas,Decatur,TX,33.11830139160156,-97.54463958740234
7372,Glyptis Manor Alpacas,Weirton,WV,40.38750076293945,-80.53462982177734
8417,Silkie's Farm,Chester Springs,PA,40.139251708984375,-75.6540298461914
7263,iMpress Alpacas,Rockton,IL,42.46923828125,-89.13812255859375
7509,Wibotawot Farm,River Falls,WI,44.887779235839844,-92.48384094238281
19996,Breezy Hill Farm,Woodbine,MD,39.3059196472168,-77.11955261230469
7113,Magik Springs Farm LLC,Ruckersville,VA,38.19076919555664,-78.41078186035156
7192,LunaSea Alpaca Farm,Clermont,FL,28.62055015563965,-81.72120666503906
6783,"Humming Desert Alpacas, LLC",Budaghers,NM,35.454959869384766,-106.32173156738281
7903,"Woodland Meadow Farm, LLC",Saratoga Springs,NY,43.139129638671875,-73.71237182617188
21548,Lighthouse Alpacas,Olympia,WA,47.11574172973633,-122.9810791015625
15689,Alpacas at Cherry Run,Willow Spring,NC,35.553348541259766,-78.649658203125
6369,"Crossed Arrows Alpacas, LLC",Velma,OK,34.45730972290039,-97.67375183105469
7439,Hummin' & Grinnin' Alpacas,Pierce,CO,40.61119842529297,-104.76428985595703
16004,Misfit Ranch,Loomis,CA,38.82542037963867,-121.17108154296875
8444,Heaven and Earth Alpaca Farm,Hudson,OH,41.20534133911133,-81.41130065917969
19944,Pittenweem Farm,Erie,CO,40.05329895019531,-105.06876373291016
6847,Halo Ranch Alpacas,West Linn,OR,45.34189987182617,-122.65960693359375
8102,Cascade Rose Alpacas,Carnation,WA,47.627140045166016,-121.90677642822266
6878,Alpaca Darlyn's Suri Farm,Marengo,OH,40.397579193115234,-82.78874206542969
7584,Secret World Alpacas,Preston,MD,38.81349182128906,-75.88260650634766
6177,Sopris Alpaca Farm,Silt,CO,39.555381774902344,-107.65963745117188
8567,Arcona Alpacas,Mechanicsburg,PA,40.18043899536133,-76.94426727294922
11619,Yaya's Alpaca Farm,Garden City,MO,38.61545181274414,-94.24960327148438
6378,Sunny Alpacas,Blaine,WA,48.97660827636719,-122.71305084228516
6269,PacaPoo LLC,Prosser,WA,46.202301025390625,-119.80455780029297
13795,Alpaca Rainbow Ranch,Colorado Springs,CO,38.82402038574219,-104.5489501953125
7210,Fallengründ Alpacas,Butler,IL,39.191619873046875,-89.53852844238281
8264,Oasis Acres LLC,Highland,MI,42.62607955932617,-83.57269287109375
6563,"Open Prairie Alpacas, LLC ",Montevideo,MN,44.96363067626953,-95.53192138671875
7907,"Herzog Alpacas, LLC",Highland Park,IL,42.18436813354492,-87.8260726928711
9820,Rolling Oak Alpaca Ranch,Makanda,IL,37.52806854248047,-89.11058044433594
7450,Barefoot Alpaca,Lincoln,DE,38.87091827392578,-75.42237091064453
6515,"Sie Sutter Suri Alpaca, LLC",Maysville,KY,38.64461898803711,-83.76966094970703
6823,Highland Airs Alpaca Ranch,Webster,NY,43.20738983154297,-77.41368103027344
8144,Elderwood Farms,Millington,TN,35.379390716552734,-89.84868621826172
7060,Red Barn Farms LLC,Cobbs Creek,VA,37.51570129394531,-76.38700103759766
6668,"Man in the Moon Farm, LLC",New Castle,VA,37.493221282958984,-80.23896789550781
8193,Roaring Acres Alpacas LLC,Suffield,CT,41.96379089355469,-72.6785888671875
9849,Little Providence Alpacas,Reno,NV,39.374820709228516,-119.73921966552734
7828,Sentinel Ranch Alpacas,Roberts,MT,45.242148285017734,-109.21257019042969
7343,Alpacaville,Bemus Point,NY,42.18302917480469,-79.37397003173828
7070,"Anderson Acres Alpacas, LLC",Ceresco,NE,41.058048248291016,-96.64861297607422
7362,Diamond Valley Alpacas,Redmond,OR,44.27680969238281,-121.22120666503906
21454,Alpagas du Domaine Poissant Inc.,Mont St-Hilaire,QC,45.52950681712531,-73.15167053685515
7537,Faith and Fleece Alpacas,Somis,CA,34.30821990966797,-118.97067260742188
6546,Triple H Ranch,Sedalia,CO,39.40353012084961,-105.00042724609375
6149,"Fox Wire Farm at Toano, LLC",Toano,VA,37.33987045288086,-76.84204864501953
6362,A & B Suri Alpaca LLC,New Bloomfield,PA,40.39670944213867,-77.15103149414062
20763,Four C's Ranch,Golden,CO,39.79526901245117,-105.1817626953125
10440,Spirit Falls Alpaca Ranch,Cook,WA,45.748470306396484,-121.65101623535156
6165,Macpaca Farms (Ben and Kristi McCallister),Middleton,ID,43.738521575927734,-116.59623718261719
16569,Red Desert Ranch,Rock Springs,WY,41.680908203125,-109.27546691894531
6252,"Willow Winds Alpacas, LLC",Irwin,PA,40.28496170043945,-79.74674224853516
15698,Kickapoo Alpacas,Jersey Village,TX,29.893930435180664,-95.57013702392578
6173,2 Point Farm LLC,Dry Ridge,KY,38.69797134399414,-84.71109771728516
7026,Temecula Valley Alpacas,Temecula,CA,33.48091125488281,-117.13288116455078
8815,Galotto Alpaca Farm,Bishop,GA,33.82184982299805,-83.47216796875
7314,Boulder Hill Alpacas,Bethel,PA,40.48065948486328,-76.38477325439453
7111,Willow Wind Farm,Westcliffe,CO,38.12825012207031,-105.54408264160156
7448,Oak Crest Alpaca Farm,Downs,IL,40.426151275634766,-88.84394836425781
7770,Kamali Alpaca Ranch,Bennett,CO,39.67723083496094,-104.4158706665039
6176,"Sutton At Home Alpacas, LLC",Rolla,MO,37.94272994995117,-91.8384017944336
7627,Buck Brook Alpacas,Roscoe,NY,41.86349105834961,-74.97750091552734
6533,Pohopoco Creek Alpacas,Effort,PA,40.95751953125,-75.45252227783203
6323,Patriot Lane Alpacas,Hermiston,OR,45.8595085144043,-119.23104858398438
10277,Sunbeam Farm,Milford,NJ,39.72784794690653,-75.01379523033134
8383,All Things Possible Alpaca Ranch,Macon,IL,39.69792175292969,-88.9781723022461
8039,Eastcoast Alpacas,Biddeford,ME,43.466209411621094,-70.50401306152344
10944,Thordarson Farms Alpacas,Redmond,OR,44.31840896606445,-121.2683334350586
6850,Running Wild Alpaca Ranch,Grand Haven,MI,43.049049377441406,-86.22689819335938
9845,Dark Rose Alpacas,Slippery Rock,PA,41.0526008605957,-80.02324676513672
7037,Flying Iron Ranch,Montrose,CO,38.282310485839844,-107.8168716430664
9788,Spirit Valley Alpacas,Wonewoc,WI,43.62260818481445,-90.21510314941406
18182,Hidden Alpaca Farm,Horseheads,NY,42.18510818481445,-76.75566101074219
9119,La Vida Alpaca & Tahoma Vista Fiber Mill,Yelm,WA,46.85422897338867,-122.61209869384766
10270,Sacred Acres Alpaca Farm,Palmyra,VA,37.89925901981224,-78.2567266711929
8289,Russell's Alpaca Acres,Burdett,NY,42.428611755371094,-76.76612091064453
6320,Ten Seven Acres,Galchutt,ND,46.38562793503715,-96.80938351154329
20949,Vermillion River Alpacas,Hastings,MN,44.68254852294922,-92.95407104492188
8278,Timber Valley Ranch,Royal Oaks,CA,36.88151168823242,-121.71173858642578
21806,Wandering Pines Ranch,Weiser,ID,44.23196029663086,-116.94245910644531
9556,Whispering Hill Fiber Farm,Schoolcraft,MI,42.15787887573242,-85.72940826416016
6256,Sundrop Alpacas,Bement,IL,39.937599182128906,-88.62161254882812
6154,Circle W Farms Alpacas ,Liberty,NC,35.923648834228516,-79.62039947509766
8293,Two Roots Alpacas and Fiber Mill,Greeneville,TN,36.025638580322266,-82.94805908203125
7881,Frerichs Alpaca Farm,West Branch,IA,41.67845153808594,-91.37320709228516
6955,Serenity At Stony Point,Stony Point,NC,35.89670181274414,-81.0013198852539
8342,Double S Alpaca LLC,Princeton,MN,45.5837516784668,-93.45128631591797
6586,WW Ranch,Descanso,CA,32.87220001220703,-116.58905029296875
6724,Deer Creek Alpacas,White,SD,44.3702507019043,-96.56674194335938
7776,Abolengo de Alpaca,Lüdinghausen,NRW,51.71566441315858,7.592374999999947
7796,Bernard Family Farm,Bonnie,IL,38.199798583984375,-88.83338165283203
8022,"Frost Farm Alpacas, LLC",Coloma,WI,44.00225830078125,-89.45580291748047
8330,Healing Springs Suris,Westville,OK,35.97969055175781,-94.63285827636719
8627,Road Runner Rascals Alpaca Ranch,Utica,OH,40.23160171508789,-82.48136138916016
21537,Granite State Alpacas,Hampton Falls,NH,42.920711517333984,-70.91126251220703
8848,Odin Falls Alpacas,Terrebonne,OR,44.3596305847168,-121.20406341552734
8876,Nash Hill Alpacas,Dover,DE,39.224578857421875,-75.54725646972656
8897,Seven Acres Alpaca Farm,Phoenix,NY,43.22808074951172,-76.38323974609375
9004,Harvard Alpaca Ranch,Harvard,MA,42.53622817993164,-71.58698272705078
9075,Country Cottage Alpacas,McMinnville,OR,45.22848129272461,-123.31242370605469
9120,Rocking R Farm,Ridgefield,WA,45.810359954833984,-122.73528289794922
9203,Enchanted Hollow Alpacas,Elwood,UT,41.6692008972168,-112.15215301513672
9206,Tanglewoods Alpaca Farm,Grand Haven,MI,43.0001106262207,-86.14600372314453
9230,Alpaca East,Etna,NH,43.6881217956543,-72.22572326660156
14156,Magnifico Alpacas residing at Walnut Hill Farm,Bloomfield Hills,MI,42.54021072387695,-83.27745056152344
20158,Indigo Alpaca Ranch,Brainerd,MN,46.270450592041016,-94.03762817382812
9663,Picotoot's Pack Of Paca Farm,Anderson,CA,40.477970123291016,-122.43222045898438
9803,Nuevo Mundo Alpaca,Frankford,DE,38.53609085083008,-75.18646240234375
9775,Circle Cliff Ranch Alpacas,Bicknell,UT,38.34088134765625,-111.54525756835938
9789,Alpacalyptic Farms,Watseka,IL,40.74974060058594,-87.80487060546875
9852,Wisolina Farm LLC,Janesville,WI,42.672119140625,-89.14026641845703
11165,Smith Rock Alpacas,Redmond,OR,44.27730178833008,-121.19461822509766
10945,Mesa Trail Alpacas,Jacks Creek,TN,35.489990234375,-88.5147933959961
10437,Palloy Alpaca,Orange,VA,38.230308532714844,-78.00467681884766
21471,Autumn Wind Alpacas,Payette,ID,44.12242126464844,-116.89302825927734
21491,Las Brisas,Eddy,TX,31.31838035583496,-97.27716827392578
11910,Living Water Fibers and Alpacas,Craig,CO,40.66838073730469,-107.39141845703125
12065,Hilltop Hideaway Alpacas LLC,Craigsville,VA,38.07632064819336,-79.37824249267578
12346,J P Acres,Lincoln,NE,40.850040435791016,-96.58428955078125
12748,Nite Star Alpacas,Schwenksville,PA,40.272979736328125,-75.43121337890625
20215,Tradewinds Alpacas,Alvin,TX,29.386720657348633,-95.1735610961914
15626,Mule Train Alpaca Ranch,Molt,MT,45.7947883605957,-108.84214782714844
21828,Honeycreek Farm,Mount Airy,MD,39.34791946411133,-77.21846771240234
13951,Diamond Bar D,Richland,MT,48.98788833618164,-106.198486328125
14056,JP's Alpacas / JP's Backyard Farm,Urbana,IL,40.13943862915039,-88.17179107666016
14097,Angie'e Alpaca Paradise,Mechanicsburg,PA,40.26216125488281,-77.00811004638672
17107,Alpacas at Sky Meadows,Riegelsville,PA,40.55411148071289,-75.23435974121094
14789,Sweet Valley Alpacas,Boise,ID,43.63386154174805,-115.99829864501953
15060,Pridemore Peak LLC,Galax,VA,36.7435417175293,-80.9005126953125
15089,Nature's Melodies LLC,Butler,PA,40.89860153198242,-79.8683090209961
15093,Silver Lining Alpaca Ranch,Howell,MI,42.671409606933594,-83.99517822265625
15124,Walnut Ridge Acres,Enola,PA,40.287841796875,-77.02606201171875
15213,Dos Chicas Ranch,Midlothian,TX,32.45949172973633,-96.95609283447266
15253,Calico Creek Ranch,Cost,TX,29.42466926574707,-97.57958221435547
15491,Suri & Company of Fern Creek Farm,Saint Louis,MO,38.65359878540039,-90.39627075195312
6741,Sa'Teen Alpacas,Snowflake,AZ,34.57575988769531,-109.96846008300781
16015,Thunder Moon Farms,Grassy Creek,NC,36.55112075805664,-81.42262268066406
19656,Olde LYFE Alpacas,Carson City,NV,39.242740631103516,-119.84652709960938
21164,"Zinnia Fields Alpaca Farms, LLC",Fairbury,NE,40.12799835205078,-97.1900863647461
16308,Angel Fleece Farms LLC,Evans City,PA,40.78873062133789,-80.03910064697266
19914,Hidden Acres ,Argyle,TX,33.12046813964844,-97.18003845214844
17017,Plum Creek Alpacas,Prescott Valley,AZ,34.694278717041016,-112.32099914550781
17104,Alpacas de Pachamama,La Center,WA,45.88534164428711,-122.58434295654297
17110,Crimson Sunrise Farm Alpacas,Becker,MN,45.41099166870117,-93.81706237792969
19576,Bur Oaks Farm,Hempstead,TX,30.21276092529297,-96.05296325683594
17188,Northern Blessings Alpacas,Rapid City,MI,44.87416076660156,-85.34001922607422
17454,Holdfast Hilty Family Farm,Medway,OH,39.861690521240234,-84.04402923583984
17704,Alpacas at Red Barn Farm ,Prosser,WA,45.87493133544922,-119.88226318359375
17836,Tree Frog Farm LLC,King George,VA,38.277339935302734,-77.28292846679688
18624,Prairie Center Alpacas,Earlville,IL,41.49789810180664,-88.92305755615234
18180,CruVer Alpacas LLC,Eagle,ID,43.712520599365234,-116.35407257080078
18212,New Groove Alpacas,Middletown,DE,39.49898910522461,-75.63450622558594
20557,Oldenburg Alpacas,Ganderkesee,Niedersachsen,52.686040871578925,8.886685278105688
18343,Parnel Family Farm,Aumsville,OR,44.826419830322266,-122.88542938232422
18484,ZB Farms,Lisbon,ND,46.325660705566406,-97.70011901855469
18538,Rensoc Farm,Hutchinson,MN,44.959529876708984,-94.36799621582031
18656,Meadowgate Alpacas,Beaverdam,VA,37.85639953613281,-77.60713958740234
19157,Goodrich Alpaca Haven,Kansas City,KS,39.08742141723633,-94.7925033569336
19846,Arella Farm LLC,Lamar,MS,34.855201721191406,-89.26666259765625
19038,Plateau Breeze Ranch,Murrieta,CA,33.552101135253906,-117.28739166259766
19579,R & K's Alpaca Farm,Hedrick,IA,41.22146987915039,-92.23766326904297
19398,Dusty Road Alpacas,Calhan,CO,38.95524978637695,-104.19093322753906
19415,Wright's Canyon River Ranch,Selah,WA,46.68190002441406,-120.51106262207031
19451,Rising K Farm,Fultonville,NY,42.83095169067383,-74.31236267089844
19483,Magajupa Mine Alpacas,Joplin,MO,37.06864929199219,-94.4122314453125
20339,Heather Glen Alpacas,Prescott Valley,AZ,34.697940826416016,-112.3223876953125
21510,International Gift,San Antonio,TX,29.572629928588867,-98.4315185546875
21154,Casa Alpaca,Santa Fe,NM,35.51103973388672,-105.91455841064453
19643,Knolveston Farm,Bakersville,NC,36.025718688964844,-82.23094940185547
19727,G.Tribe Alpacas,Vancouver,WA,45.735660552978516,-122.6116714477539
19757,Farm Cabin Alpacas,Le Center,MN,44.4634895324707,-93.68682098388672
19773,Hidden Spring Lavender & Alpacas,Skillman,NJ,40.43001937866211,-74.70018005371094
19872,Angie's Alpaca Farm,East Berne,NY,42.59764862060547,-74.07401275634766
19888,Patch of Heaven Alpaca Farm,Frankfort,KY,38.12942123413086,-84.97380828857422
21149,Plumeria Alpaca Ranch,Glencoe,MN,44.75725173950195,-94.1514663696289
19985,Briarwood Acres,Salem,OR,44.99494171142578,-123.11971282958984
20055,Stone Ridge Farm,York,PA,39.97581701439092,-76.64990344047547
20059,Triple T Alpaca,Foreston,MN,45.749839782714844,-93.73058319091797
20063,Crazy Hair Alpacas,Franktown,CO,39.411800384521484,-104.67581939697266
20252,Eagle Eye Farm,River Falls,WI,44.82209014892578,-92.73503875732422
20362,Alpacas of Blowing Oaks Ranch ,Batesville,AR,35.78670120239258,-91.59430694580078
20606,Buena Vista Alpacas,Caldwell,TX,30.44976043701172,-96.54850769042969
20456,Cotton Creek Farms,Thompsonville,MI,44.51519012451172,-85.77754211425781
20480,Noble Fleece Alpacas,Valley View,TX,33.48384094238281,-97.07350158691406
20509,Dark Lotus Farm,Slippery Rock,PA,41.05200958251953,-79.98560333251953
20511,Badger Canyon Farm,Kennewick,WA,46.168251037597656,-119.29762268066406
21516,Enchanted Forest Alpacas,Hersey,MI,43.81496047973633,-85.44850158691406
21772,Alpacas Of Rock Ridge,Columbus,MT,45.65970993041992,-109.09480285644531
21834,Rainbow Road Alpacas,Ponca City,OK,36.700531005859375,-96.9590835571289
20679,Providence Meadow Farm LLC,Smithfield,PA,39.84022903442383,-79.83484649658203
21143,Sunny Dayz Alpaca Acrez,Calhan,CO,38.91667938232422,-104.20303344726562
20846,2 Docs Farm,Rockwood,MI,42.07162094116211,-83.22590637207031
20854,Ever After Alpaca Farm,Broad Run,VA,38.783470153808594,-77.73478698730469
20866,Lucky Clover Farm,Yorkville,IL,41.63298034667969,-88.46206665039062
21870,Homestead Arts Farm,Pine Island,MN,44.20957946777344,-92.70062255859375
20926,Coleman Valley Alpacas,Franklin,TN,35.87519073486328,-86.91197967529297
20952,Alpaca Run Farm,Parkersburg,WV,39.228580474853516,-81.49756622314453
20957,Honey Maple Farms Suri Alpacas,Luthersburg,PA,41.03507995605469,-78.76332092285156
21216, Victory Acres Alpacas,Dobson,NC,36.383399963378906,-80.68887329101562
21043,McCarty's Corner Farm,Eldridge,IA,41.65522003173828,-90.48873901367188
21899,Hitch’N Post Alpaca Farm,Woodstock,IL,42.3474006652832,-88.51728057861328
20994,Casa De Arboles,monroe,WA,47.9030285611855,-121.92779230828793
21056,Coniraya,Sieborowice,ML,50.164340815379106,20.043407985634758
21266,Mayfields Equestrian and Alpaca Farm ,Albion,NY,43.25400161743164,-78.2679214477539
21080,Happy Hearts Homestead,Abbottstown,PA,39.89645004272461,-76.96333312988281
21081,MoniDu Farms,Cleburne,TX,32.4186897277832,-97.34062957763672
21105,Pine Valley Farm,Jeffersonville,NY,41.72724151611328,-74.92977142333984
21118,Pacas West,Deer Park,WA,47.99711990356445,-117.46942138671875
21150,Red Door Alpaca Farm,Coventry,CT,41.7529411315918,-72.30702209472656
21456,Winchester Creek Farm,Waynesville,NC,35.45043182373047,-83.072021484375
21109,North Kountry Alpacas,Wilson,MI,45.72848129272461,-87.36599731445312
21224,Ledgecreek Farm,Union,CT,41.96424102783203,-72.21190643310547
21152,Patina Farm Alpacas,Canton,MS,32.575408935546875,-90.05236053466797
21126,Aslan Alpacas,Sequim,WA,48.0672607421875,-123.14016723632812
21137,Bent Pine Alpaca Farm,Carlisle,PA,40.1616096496582,-77.30699157714844
21544,Bent Branch Farm,Leland,IL,41.659889221191406,-88.76217651367188
21142,"New Beginnings Alpaca Farm, LLC",Cameron,MO,39.680580139160156,-94.26966094970703
21472,Skaggs Family Farm,Compton,IL,41.648441314697266,-89.09073638916016
21874,Sonoma Suri Alpacas,Cloverdale,CA,38.832191467285156,-122.97451782226562
21295,Angels Crossing Alpacas,Elizabeth,CO,39.377601623535156,-104.65376281738281
21780,Stone Falls Farm,Iron Station,NC,35.47779846191406,-81.09964752197266
21168,"Alpacas of Treasure Valley, LLC",Wilder,ID,43.67570877075195,-116.96205139160156
21477,Goshen Meadows Alpaca Farm,Sanger,TX,33.38330841064453,-97.15364837646484
21229,Once Upon a Hen & Alpaca,Graham,WA,46.98392105102539,-122.25128173828125
21699,Sugar Valley Alpacas LLC,Cartersville,GA,34.17488098144531,-84.8729019165039
21534,Alpine Drive Alpaca's,Hermiston,OR,45.880348205566406,-119.27613067626953
21789,River Birch Farms,Winlock,WA,46.503910064697266,-122.9494400024414
21376,Emmanuel Hill Ranch,Dexter,OR,43.91299057006836,-122.82292938232422
21670,Promise Land Farm,Royston,GA,34.231510162353516,-83.07460021972656
21302,Royalpaca,Roy,WA,46.952301025390625,-122.50150299072266
21777,Crimson Skye Farm,Schwenksville,PA,40.264469146728516,-75.42172241210938
21709,Fleecy Friends Alpaca Ranch,Boynton,OK,35.58790969848633,-95.78414916992188
21273,PaKman Farm Alpacas,Nicholasville,KY,37.94633102416992,-84.5743408203125
21629,Northern Charm Farm,Midland,MI,43.58063888549805,-84.33074188232422
21465,Warndahl Ranch,Uhland,TX,30.01218032836914,-97.77799987792969
21263,Feighner Family Farms,Haslett,MI,42.77827835083008,-84.34174346923828
21610,Sunny Acres Alpacas,Ponte Vedra,FL,30.094539642333984,-81.43546295166016
21333,Maui Alpaca,Makawao,HI,20.81793975830078,-156.31936645507812
21676,Pohja Farms LLC,Templeton,MA,42.513160705566406,-72.07354736328125
21455,Enchanted Farms LLC,Duvall,WA,47.71295166015625,-121.91602325439453
21450,Shelhart Acre Farms,Claypool,IN,41.13541030883789,-85.83606719970703
21596,"Prema Alpacas, LLC",Flagstaff,AZ,35.19779968261719,-111.64640045166016
21379,Tara Agriculture LLC,Thornville,OH,39.834529876708984,-82.42774200439453
21513,Joyful Blessings Alpaca Ranch,Wildomar,CA,33.602779388427734,-117.28317260742188
21773,Paradise Acres Farm,Centerville,TN,35.75674057006836,-87.50959777832031
21415,"Meepah Ventures, LLC",Buffalo Mills,PA,39.9251708984375,-78.74893951416016
21884,Orthopaca Farm and Apiary LLC,Katy,TX,29.74798011779785,-95.80181121826172
21413,All Valley Alpacas,Tehachapi,CA,35.154090881347656,-118.63375091552734
21436,Okarga Farms,Broken Arrow,OK,36.095619201660156,-95.75068664550781
21428,Outlaw Farm Alpacas LLC,Grafton,OH,41.2227783203125,-82.018798828125
21435,Hastings Farms,Judsonia,AR,35.38349151611328,-91.65789031982422
21620,Misty Pond Alpaca & Maremmas,Paducah,KY,36.979679107666016,-88.65000915527344
21494,"Hourglass Alpacas, LLC",Mc Connells,SC,34.857608795166016,-81.23249816894531
21573,Abundant Joy Farm,Lizton,IN,39.87556076049805,-86.56404876708984
21774,Two Drifters Ranch,Parker,CO,39.439571380615234,-104.68314361572266
21829,Twisted Heart Alpacas,Bayfield,CO,37.29439163208008,-107.58895111083984
21542,Moonfire Farm,Barboursville,VA,38.17245864868164,-78.34100341796875
21767,Alpacas at Holistic Farms,Gorham,ME,43.70161819458008,-70.42485809326172
21575,5S Alpacas,Madera,CA,36.99095153808594,-119.87940979003906
21611,Star Blossom Farm,Middleboro,MA,41.84347152709961,-70.86799621582031
21893,Serenity Farm,Brush Creek,TN,36.151458740234375,-86.03382110595703
21649,Ouroboros Farmstead,Springfield,OR,44.056270599365234,-122.76870727539062
21662,The Cozy Red Cottage,Rochester,WA,46.8194694519043,-123.0230484008789
21655,Five Daughters Farm,Esko,MN,46.7398796081543,-92.32276153564453
21656,Black Barn Alpacas,Floresville,TX,29.114299774169922,-98.19661712646484
21779,Five 8 Ranch Alpacas,Wills Point,TX,32.664669036865234,-95.92671966552734
21675,Grace Acres Ranch,Hiawatha,KS,39.84865951538086,-95.6131591796875
21781,Zibeline Alpaca Ranch,Loomis,CA,38.806251525878906,-121.11264038085938
21790,Fleur de Lys Alpacas,Leonard,MI,42.86075973510742,-83.1217269897461
21880,Frazer's Stable,Haymarket,VA,38.879188537597656,-77.63124084472656
21732,Peruvian Pastures,Lucama,NC,35.65618133544922,-78.09005737304688
21731,"Farm and Fleece, LLC",Concord,NC,35.356990814208984,-80.50138854980469
21771,Elysian Fields Alpacas,Niangua,MO,37.445499420166016,-92.80271911621094
21757,Ebfort Alpaca Farm,Chromo,CO,37.037367621575754,-106.80598525238035
21768,Carolina Sunshine Alpaca Farm,Pittsboro,NC,35.73371124267578,-79.30216979980469
21765,Natty West Alpacas LLC,Holmen,WI,44.029239654541016,-91.26701354980469
21800,Cape County Alpacas,Cape Girardeau,MO,37.32680130004883,-89.69505310058594
21905,Metzger Farm and Flowers,Woodland,WA,45.91511154174805,-122.6402587890625
21797,McCombs Family Farms,Sonoma,CA,38.27962875366211,-122.44477844238281
21920,Pura Vida Ranch,Clintonville,WI,44.714111328125,-88.78182220458984
21875,Rosey Diamond Alpaca Farm,Snohomish,WA,47.99959945678711,-122.02256774902344
21892,Spring Creek Alpacas,Huson,MT,47.079498291015625,-114.433349609375
21791,AlphaPaca Farm,Alpha,IL,41.22441101074219,-90.39087677001953
21898,Castillo Family Farm,Placerville,CA,38.70180892944336,-120.79846954345703
21792,Mercy Farm,Ponchatoula,LA,30.43708038330078,-90.3481674194336
21863,Teaberry Alpaca Farms,Catawba,VA,37.37120056152344,-80.25830841064453
21807,Half Ass Farms LLC,Jefferson Township,PA,41.402320861816406,-75.51685333251953
21803,3 Pine Ranch,Estancia,NM,34.710628509521484,-106.17764282226562
21837,Shafers Acres ,Davisburg,MI,42.721710205078125,-83.53172302246094
21854,Fulcrum Farms,Cuyahoga Falls,OH,41.1956787109375,-81.52818298339844
21891,Lullabee Acres,Chino Valley,AZ,34.77592086791992,-112.50154876708984
21890,Buttermilk Forty Alpacas LLC,Sedalia,MO,38.82638931274414,-93.05455017089844
21841,RNR Ridge Farms,Ottawa,KS,38.56074905395508,-95.32344055175781
21917,Inkasisa Farm,Warwick,MD,39.43341827392578,-75.8177490234375
21848,Little Ward Farm,LeClaire,IA,41.6272087097168,-90.43247985839844
21846,"Macedo Family Alpacas, LLC",Yacolt,WA,45.851558685302734,-122.4908218383789
21908,The Camelot Kingdom,Heber City,UT,40.47084045410156,-111.45780944824219
21889,DutchDillon Ranch Alpacas,Maybell,CO,38.67118936096652,-103.94082812499998
21896,"MacPaca Farm, LLC",Xenia,OH,39.68595886230469,-83.98370361328125
21904,JD Farm LLC,Woodbury,CT,41.576229095458984,-73.17536163330078
21902,Copper Valley Alpacas AZ,Prescott Valley,AZ,34.6887092590332,-112.32952880859375
21883,Cuttin M Ranch,New London,MO,39.50162124633789,-91.43403625488281
21886,Muphys Point Ranch,Nampa,ID,43.5353889465332,-116.5507583618164
21887,Brenda & Perry Hillman,Monmouth,IL,40.97447967529297,-90.67951965332031
21888,Elk Meadow Homestead,Wellsville,UT,41.58353042602539,-111.92733001708984
21895,Arbuckle Alpacas,Ardmore,OK,34.1946907043457,-97.09430694580078
21903,Cockrills Country Critters,Austin,AR,35.02907943725586,-92.00128936767578
21916,Alpacas Goats and Dreams,Arcadia,MO,37.59851837158203,-90.5587387084961
